CCSDS_OMM_VERS = 2.0
CREATION_DATE  = 
ORIGINATOR     = 

OBJECT_NAME    = COSMOS 1933
OBJECT_ID      = 1988-020A
CENTER_NAME    = EARTH
REF_FRAME      = TEME
TIME_SYSTEM    = UTC
MEAN_ELEMENT_THEORY = SGP/SGP4

EPOCH          = 2026-02-15T02:41:51.218304
MEAN_MOTION    = 15.17779966
ECCENTRICITY   = .00026428
INCLINATION    = 82.5113
RA_OF_ASC_NODE = 273.2511
ARG_OF_PERICENTER = 288.4188
MEAN_ANOMALY   = 71.6758

EPHEMERIS_TYPE = 0
CLASSIFICATION_TYPE = U
NORAD_CAT_ID   = 18958
ELEMENT_SET_NO = 999
REV_AT_EPOCH   = 4680
BSTAR          = .17352891E-3
MEAN_MOTION_DOT = .3535E-4
MEAN_MOTION_DDOT = 0

CCSDS_OMM_VERS = 2.0
CREATION_DATE  = 
ORIGINATOR     = 

OBJECT_NAME    = SL-3 R/B
OBJECT_ID      = 1988-032B
CENTER_NAME    = EARTH
REF_FRAME      = TEME
TIME_SYSTEM    = UTC
MEAN_ELEMENT_THEORY = SGP/SGP4

EPOCH          = 2026-02-15T05:09:02.735136
MEAN_MOTION    = 15.19619339
ECCENTRICITY   = .00247253
INCLINATION    = 97.5152
RA_OF_ASC_NODE = 29.5561
ARG_OF_PERICENTER = 315.7386
MEAN_ANOMALY   = 44.1871

EPHEMERIS_TYPE = 0
CLASSIFICATION_TYPE = U
NORAD_CAT_ID   = 19046
ELEMENT_SET_NO = 999
REV_AT_EPOCH   = 4869
BSTAR          = .34748021E-3
MEAN_MOTION_DOT = .7392E-4
MEAN_MOTION_DDOT = 0

CCSDS_OMM_VERS = 2.0
CREATION_DATE  = 
ORIGINATOR     = 

OBJECT_NAME    = SL-16 R/B
OBJECT_ID      = 1988-039B
CENTER_NAME    = EARTH
REF_FRAME      = TEME
TIME_SYSTEM    = UTC
MEAN_ELEMENT_THEORY = SGP/SGP4

EPOCH          = 2026-02-15T06:59:29.444064
MEAN_MOTION    = 14.19612977
ECCENTRICITY   = .00213772
INCLINATION    = 71.0143
RA_OF_ASC_NODE = 115.9126
ARG_OF_PERICENTER = 8.2804
MEAN_ANOMALY   = 351.8669

EPHEMERIS_TYPE = 0
CLASSIFICATION_TYPE = U
NORAD_CAT_ID   = 19120
ELEMENT_SET_NO = 999
REV_AT_EPOCH   = 95520
BSTAR          = .10864766E-3
MEAN_MOTION_DOT = .182E-5
MEAN_MOTION_DDOT = 0

CCSDS_OMM_VERS = 2.0
CREATION_DATE  = 
ORIGINATOR     = 

OBJECT_NAME    = COSMOS 1953
OBJECT_ID      = 1988-050A
CENTER_NAME    = EARTH
REF_FRAME      = TEME
TIME_SYSTEM    = UTC
MEAN_ELEMENT_THEORY = SGP/SGP4

EPOCH          = 2026-02-15T07:10:15.958848
MEAN_MOTION    = 15.28079371
ECCENTRICITY   = .00109993
INCLINATION    = 82.5096
RA_OF_ASC_NODE = 180.7527
ARG_OF_PERICENTER = 198.3597
MEAN_ANOMALY   = 161.7247

EPHEMERIS_TYPE = 0
CLASSIFICATION_TYPE = U
NORAD_CAT_ID   = 19210
ELEMENT_SET_NO = 999
REV_AT_EPOCH   = 3436
BSTAR          = .43162741E-3
MEAN_MOTION_DOT = .11872E-3
MEAN_MOTION_DDOT = 0

CCSDS_OMM_VERS = 2.0
CREATION_DATE  = 
ORIGINATOR     = 

OBJECT_NAME    = SL-8 R/B
OBJECT_ID      = 1988-053B
CENTER_NAME    = EARTH
REF_FRAME      = TEME
TIME_SYSTEM    = UTC
MEAN_ELEMENT_THEORY = SGP/SGP4

EPOCH          = 2026-02-15T06:18:28.105920
MEAN_MOTION    = 14.38902216
ECCENTRICITY   = .00206842
INCLINATION    = 74.0485
RA_OF_ASC_NODE = 153.8013
ARG_OF_PERICENTER = 337.0916
MEAN_ANOMALY   = 50.0309

EPHEMERIS_TYPE = 0
CLASSIFICATION_TYPE = U
NORAD_CAT_ID   = 19257
ELEMENT_SET_NO = 999
REV_AT_EPOCH   = 97337
BSTAR          = .96799749E-4
MEAN_MOTION_DOT = .272E-5
MEAN_MOTION_DDOT = 0

CCSDS_OMM_VERS = 2.0
CREATION_DATE  = 
ORIGINATOR     = 

OBJECT_NAME    = COSMOS 1975
OBJECT_ID      = 1988-093A
CENTER_NAME    = EARTH
REF_FRAME      = TEME
TIME_SYSTEM    = UTC
MEAN_ELEMENT_THEORY = SGP/SGP4

EPOCH          = 2026-02-15T06:15:36.329760
MEAN_MOTION    = 15.27683522
ECCENTRICITY   = .00103897
INCLINATION    = 82.5225
RA_OF_ASC_NODE = 140.1881
ARG_OF_PERICENTER = 245.8995
MEAN_ANOMALY   = 114.1158

EPHEMERIS_TYPE = 0
CLASSIFICATION_TYPE = U
NORAD_CAT_ID   = 19573
ELEMENT_SET_NO = 999
REV_AT_EPOCH   = 1598
BSTAR          = .40529585E-3
MEAN_MOTION_DOT = .11014E-3
MEAN_MOTION_DDOT = 0

CCSDS_OMM_VERS = 2.0
CREATION_DATE  = 
ORIGINATOR     = 

OBJECT_NAME    = SL-14 R/B
OBJECT_ID      = 1988-093B
CENTER_NAME    = EARTH
REF_FRAME      = TEME
TIME_SYSTEM    = UTC
MEAN_ELEMENT_THEORY = SGP/SGP4

EPOCH          = 2026-02-15T02:22:13.316736
MEAN_MOTION    = 14.85629319
ECCENTRICITY   = .00222408
INCLINATION    = 82.5278
RA_OF_ASC_NODE = 63.2564
ARG_OF_PERICENTER = 111.4519
MEAN_ANOMALY   = 307.8353

EPHEMERIS_TYPE = 0
CLASSIFICATION_TYPE = U
NORAD_CAT_ID   = 19574
ELEMENT_SET_NO = 999
REV_AT_EPOCH   = 99768
BSTAR          = .4628155E-4
MEAN_MOTION_DOT = .427E-5
MEAN_MOTION_DDOT = 0

CCSDS_OMM_VERS = 2.0
CREATION_DATE  = 
ORIGINATOR     = 

OBJECT_NAME    = SL-16 R/B
OBJECT_ID      = 1988-102B
CENTER_NAME    = EARTH
REF_FRAME      = TEME
TIME_SYSTEM    = UTC
MEAN_ELEMENT_THEORY = SGP/SGP4

EPOCH          = 2026-02-14T21:04:12.505728
MEAN_MOTION    = 14.16150854
ECCENTRICITY   = .00127254
INCLINATION    = 70.9986
RA_OF_ASC_NODE = 199.4908
ARG_OF_PERICENTER = 38.4297
MEAN_ANOMALY   = 321.7730

EPHEMERIS_TYPE = 0
CLASSIFICATION_TYPE = U
NORAD_CAT_ID   = 19650
ELEMENT_SET_NO = 999
REV_AT_EPOCH   = 92366
BSTAR          = .12729041E-3
MEAN_MOTION_DOT = .204E-5
MEAN_MOTION_DDOT = 0

CCSDS_OMM_VERS = 2.0
CREATION_DATE  = 
ORIGINATOR     = 

OBJECT_NAME    = INTERCOSMOS 24
OBJECT_ID      = 1989-080A
CENTER_NAME    = EARTH
REF_FRAME      = TEME
TIME_SYSTEM    = UTC
MEAN_ELEMENT_THEORY = SGP/SGP4

EPOCH          = 2026-02-15T05:52:50.693952
MEAN_MOTION    = 12.59525540
ECCENTRICITY   = .11876287
INCLINATION    = 82.6057
RA_OF_ASC_NODE = 119.0153
ARG_OF_PERICENTER = 344.9530
MEAN_ANOMALY   = 11.8886

EPHEMERIS_TYPE = 0
CLASSIFICATION_TYPE = U
NORAD_CAT_ID   = 20261
ELEMENT_SET_NO = 999
REV_AT_EPOCH   = 66397
BSTAR          = .17810424E-3
MEAN_MOTION_DOT = .611E-5
MEAN_MOTION_DDOT = 0

CCSDS_OMM_VERS = 2.0
CREATION_DATE  = 
ORIGINATOR     = 

OBJECT_NAME    = SL-14 R/B
OBJECT_ID      = 1989-080C
CENTER_NAME    = EARTH
REF_FRAME      = TEME
TIME_SYSTEM    = UTC
MEAN_ELEMENT_THEORY = SGP/SGP4

EPOCH          = 2026-02-15T07:27:15.936768
MEAN_MOTION    = 12.50464956
ECCENTRICITY   = .12296047
INCLINATION    = 82.5954
RA_OF_ASC_NODE = 187.5508
ARG_OF_PERICENTER = 235.9148
MEAN_ANOMALY   = 111.9265

EPHEMERIS_TYPE = 0
CLASSIFICATION_TYPE = U
NORAD_CAT_ID   = 20262
ELEMENT_SET_NO = 999
REV_AT_EPOCH   = 65735
BSTAR          = .17402247E-3
MEAN_MOTION_DOT = .576E-5
MEAN_MOTION_DDOT = 0

CCSDS_OMM_VERS = 2.0
CREATION_DATE  = 
ORIGINATOR     = 

OBJECT_NAME    = DELTA 1 R/B
OBJECT_ID      = 1989-089B
CENTER_NAME    = EARTH
REF_FRAME      = TEME
TIME_SYSTEM    = UTC
MEAN_ELEMENT_THEORY = SGP/SGP4

EPOCH          = 2026-02-15T03:13:34.190400
MEAN_MOTION    = 14.50643765
ECCENTRICITY   = .00687135
INCLINATION    = 97.0722
RA_OF_ASC_NODE = 257.1581
ARG_OF_PERICENTER = 192.7987
MEAN_ANOMALY   = 167.1469

EPHEMERIS_TYPE = 0
CLASSIFICATION_TYPE = U
NORAD_CAT_ID   = 20323
ELEMENT_SET_NO = 999
REV_AT_EPOCH   = 89246
BSTAR          = .86674263E-4
MEAN_MOTION_DOT = .315E-5
MEAN_MOTION_DDOT = 0

CCSDS_OMM_VERS = 2.0
CREATION_DATE  = 
ORIGINATOR     = 

OBJECT_NAME    = ARIANE 40 R/B
OBJECT_ID      = 1990-005H
CENTER_NAME    = EARTH
REF_FRAME      = TEME
TIME_SYSTEM    = UTC
MEAN_ELEMENT_THEORY = SGP/SGP4

EPOCH          = 2026-02-15T03:49:24.573216
MEAN_MOTION    = 14.39854924
ECCENTRICITY   = .00088772
INCLINATION    = 98.3134
RA_OF_ASC_NODE = 107.4864
ARG_OF_PERICENTER = 272.1024
MEAN_ANOMALY   = 87.9148

EPHEMERIS_TYPE = 0
CLASSIFICATION_TYPE = U
NORAD_CAT_ID   = 20443
ELEMENT_SET_NO = 999
REV_AT_EPOCH   = 88956
BSTAR          = .91656736E-4
MEAN_MOTION_DOT = .245E-5
MEAN_MOTION_DDOT = 0

