COSMOS 1933             
1 18958U 88020A   26046.11239836  .00003535  00000+0  17353-3 0  9997
2 18958  82.5113 273.2511 0002642 288.4188  71.6758 15.17779966 46807
SL-3 R/B                
1 19046U 88032B   26046.21461499  .00007392  00000+0  34748-3 0  9994
2 19046  97.5152  29.5561 0024725 315.7386  44.1871 15.19619339 48691
SL-16 R/B               
1 19120U 88039B   26046.29131301  .00000182  00000+0  10865-3 0  9992
2 19120  71.0143 115.9126 0021377   8.2804 351.8669 14.19612977955204
COSMOS 1953             
1 19210U 88050A   26046.29879582  .00011872  00000+0  43163-3 0  9990
2 19210  82.5096 180.7527 0010999 198.3597 161.7247 15.28079371 34362
SL-8 R/B                
1 19257U 88053B   26046.26282530  .00000272  00000+0  96800-4 0  9991
2 19257  74.0485 153.8013 0020684 337.0916  50.0309 14.38902216973376
COSMOS 1975             
1 19573U 88093A   26046.26083715  .00011014  00000+0  40530-3 0  9994
2 19573  82.5225 140.1881 0010389 245.8995 114.1158 15.27683522 15982
SL-14 R/B               
1 19574U 88093B   26046.09876524  .00000427  00000+0  46282-4 0  9991
2 19574  82.5278  63.2564 0022240 111.4519 307.8353 14.85629319997684
SL-16 R/B               
1 19650U 88102B   26045.87792252  .00000204  00000+0  12729-3 0  9998
2 19650  70.9986 199.4908 0012725  38.4297 321.7730 14.16150854923666
INTERCOSMOS 24          
1 20261U 89080A   26046.24503118  .00000611  00000+0  17810-3 0  9995
2 20261  82.6057 119.0153 1187628 344.9530  11.8886 12.59525540663973
SL-14 R/B               
1 20262U 89080C   26046.31060112  .00000576  00000+0  17402-3 0  9993
2 20262  82.5954 187.5508 1229604 235.9148 111.9265 12.50464956657350
DELTA 1 R/B             
1 20323U 89089B   26046.13442350  .00000315  00000+0  86674-4 0  9997
2 20323  97.0722 257.1581 0068713 192.7987 167.1469 14.50643765892460
ARIANE 40 R/B           
1 20443U 90005H   26046.15931219  .00000245  00000+0  91657-4 0  9998
2 20443  98.3134 107.4864 0008877 272.1024  87.9148 14.39854924889563
